STARLINK-31598          
1 59263U 24050K   26068.62846355 -.00000080  00000+0  94387-5 0  9991
2 59263  53.1619 181.6524 0001335  82.4699 277.6453 15.30183586110533
TEVEL2-6                
1 63215U 25052F   26068.64958975  .00021046  00000+0  70909-3 0  9996
2 63215  97.4016 325.0381 0004769  95.6604 264.5181 15.30760889 54861
